NORAD_CAT_ID,OBJECT_NAME,OBJECT_TYPE,EPOCH,MEAN_MOTION,ECCENTRICITY,INCLINATION,RA_OF_ASC_NODE,ARG_OF_PERICENTER,MEAN_ANOMALY,BSTAR,MEAN_MOTION_DOT,MEAN_MOTION_DDOT,TLE_LINE0,TLE_LINE1,TLE_LINE2,SEMIMAJOR_AXIS,PERIOD,APOGEE,PERIGEE,DECAYED
50185.0,STARLINK-3279,PAYLOAD,2024-01-09 19:55:41,15.08851378,0.0001257,53.2158,194.9737,87.2616,272.852,0.00016396,2.323e-05,0.0,0 STARLINK-3279,1 50185U 21125AF  24009.83034524  .00002323  00000-0  16396-3 0  9992,2 50185  53.2158 194.9737 0001257  87.2616 272.8520 15.08851378116886,6917.846,95.437,540.58,538.841,0.0
50185.0,STARLINK-3279,PAYLOAD,2024-01-09 21:31:04,15.08855982,0.0001231,53.217,194.6732,97.0026,263.1106,0.00019254,2.779e-05,0.0,0 STARLINK-3279,1 50185U 21125AF  24009.89657962  .00002779  00000-0  19254-3 0  9996,2 50185  53.2170 194.6732 0001231  97.0026 263.1106 15.08855982117371,6917.832,95.437,540.548,538.845,0.0
50185.0,STARLINK-3279,PAYLOAD,2024-01-10 11:49:34,15.08838674,0.0001536,53.215,192.0016,78.2716,281.8449,4.6112e-05,4.46e-06,0.0,0 STARLINK-3279,1 50185U 21125AF  24010.49275633  .00000446  00000-0  46112-4 0  9998,2 50185  53.2150 192.0016 0001536  78.2716 281.8449 15.08838674117467,6917.884,95.438,540.812,538.687,0.0
50185.0,STARLINK-3279,PAYLOAD,2024-01-10 18:11:06,15.08835539,0.0001271,53.2155,190.8119,74.0641,286.0491,2.5147e-05,1.12e-06,0.0,0 STARLINK-3279,1 50185U 21125AF  24010.75771963  .00000112  00000-0  25147-4 0  9999,2 50185  53.2155 190.8119 0001271  74.0641 286.0491 15.08835539117022,6917.894,95.438,540.638,538.88,0.0
50185.0,STARLINK-3279,PAYLOAD,2024-01-11 14:51:07,15.08848563,0.0001221,53.216,186.9448,78.4475,281.6655,-3.0017e-05,-7.66e-06,0.0,0 STARLINK-3279,1 50185U 21125AF  24011.61883310 -.00000766  00000-0 -30017-4 0  9994,2 50185  53.2160 186.9448 0001221  78.4475 281.6655 15.08848563117638,6917.854,95.437,540.564,538.875,0.0
50185.0,STARLINK-3279,PAYLOAD,2024-01-11 18:01:53,15.0885066,0.0001322,53.2161,186.3503,72.9353,287.1783,-8.996e-06,-4.31e-06,0.0,0 STARLINK-3279,1 50185U 21125AF  24011.75131106 -.00000431  00000-0 -89960-5 0  9999,2 50185  53.2161 186.3503 0001322  72.9353 287.1783 15.08850660117174,6917.848,95.437,540.627,538.798,0.0
50185.0,STARLINK-3279,PAYLOAD,2024-01-11 21:12:39,15.08852235,0.00013,53.2161,185.7554,74.9281,285.1855,7.0795e-06,-1.75e-06,0.0,0 STARLINK-3279,1 50185U 21125AF  24011.88378883 -.00000175  00000-0  70795-5 0  9998,2 50185  53.2161 185.7554 0001300  74.9281 285.1855 15.08852235117674,6917.843,95.437,540.607,538.809,0.0
50185.0,STARLINK-3279,PAYLOAD,2024-01-12 11:31:08,15.08835283,0.0001285,53.2163,183.0773,85.7621,274.3518,4.2016e-05,3.81e-06,0.0,0 STARLINK-3279,1 50185U 21125AF  24012.47995880  .00000381  00000-0  42016-4 0  9998,2 50185  53.2163 183.0773 0001285  85.7621 274.3518 15.08835283117287,6917.895,95.438,540.649,538.871,0.0
50185.0,STARLINK-3279,PAYLOAD,2024-01-12 14:41:54,15.08836408,0.0001266,53.2162,182.4827,89.0823,271.0314,5.286e-05,5.53e-06,0.0,0 STARLINK-3279,1 50185U 21125AF  24012.61243788  .00000553  00000-0  52860-4 0  9996,2 50185  53.2162 182.4827 0001266  89.0823 271.0314 15.08836408117782,6917.891,95.438,540.632,538.881,0.0
50185.0,STARLINK-3279,PAYLOAD,2024-01-12 17:52:40,15.0883724,0.000125,53.2164,181.8877,89.9777,270.1359,5.0611e-05,5.18e-06,0.0,0 STARLINK-3279,1 50185U 21125AF  24012.74491743  .00000518  00000-0  50611-4 0  9999,2 50185  53.2164 181.8877 0001250  89.9777 270.1359 15.08837240117809,6917.889,95.438,540.619,538.889,0.0
50185.0,STARLINK-3279,PAYLOAD,2024-01-13 14:32:41,15.08843782,0.0001262,53.2162,178.0219,90.8486,269.2651,6.2079e-05,7e-06,0.0,0 STARLINK-3279,1 50185U 21125AF  24013.60603486  .00000700  00000-0  62079-4 0  9998,2 50185  53.2162 178.0219 0001262  90.8486 269.2651 15.08843782117932,6917.869,95.437,540.607,538.861,0.0
50185.0,STARLINK-3279,PAYLOAD,2024-01-13 16:08:04,15.08847792,0.0001264,53.2167,177.7251,87.4322,272.6815,4.9948e-05,5.07e-06,0.0,0 STARLINK-3279,1 50185U 21125AF  24013.67227293  .00000507  00000-0  49948-4 0  9998,2 50185  53.2167 177.7251 0001264  87.4322 272.6815 15.08847792117465,6917.857,95.437,540.596,538.847,0.0
50185.0,STARLINK-3279,PAYLOAD,2024-01-14 11:12:42,15.08833996,0.0001317,53.2179,174.166,74.1103,286.0034,0.00012297,1.669e-05,0.0,0 STARLINK-3279,1 50185U 21125AF  24014.46716135  .00001669  00000-0  12297-3 0  9990,2 50185  53.2179 174.1660 0001317  74.1103 286.0034 15.08833996117588,6917.899,95.438,540.675,538.853,0.0
50185.0,STARLINK-3279,PAYLOAD,2024-01-14 14:23:29,15.08833847,0.0001207,53.218,173.5718,77.6285,282.4842,0.00010602,1.4e-05,0.0,0 STARLINK-3279,1 50185U 21125AF  24014.59964243  .00001400  00000-0  10602-3 0  9990,2 50185  53.2180 173.5718 0001207  77.6285 282.4842 15.08833847118082,6917.899,95.438,540.599,538.929,0.0
50185.0,STARLINK-3279,PAYLOAD,2024-01-14 15:58:52,15.0883554,0.0001486,53.2181,173.2739,91.3617,268.7546,7.2197e-05,8.61e-06,0.0,0 STARLINK-3279,1 50185U 21125AF  24014.66588245  .00000861  00000-0  72197-4 0  9990,2 50185  53.2181 173.2739 0001486  91.3617 268.7546 15.08835540118095,6917.894,95.438,540.787,538.731,0.0
50185.0,STARLINK-3279,PAYLOAD,2024-01-15 14:14:16,15.08840898,0.0001341,53.2172,169.1041,85.6561,274.4584,2.9468e-05,1.81e-06,0.0,0 STARLINK-3279,1 50185U 21125AF  24015.59324147  .00000181  00000-0  29468-4 0  9990,2 50185  53.2172 169.1041 0001341  85.6561 274.4584 15.08840898118233,6917.878,95.437,540.67,538.815,0.0
50185.0,STARLINK-3279,PAYLOAD,2024-01-15 17:25:02,15.08843524,0.0001361,53.2171,168.509,70.7434,289.3705,4.6603e-05,4.54e-06,0.0,0 STARLINK-3279,1 50185U 21125AF  24015.72571966  .00000454  00000-0  46603-4 0  9991,2 50185  53.2171 168.5090 0001361  70.7434 289.3705 15.08843524117772,6917.87,95.437,540.676,538.793,0.0
50185.0,STARLINK-3279,PAYLOAD,2024-01-16 10:54:17,15.08833439,0.0001373,53.2183,165.2393,84.9724,275.1425,2.9998e-05,1.89e-06,0.0,0 STARLINK-3279,1 50185U 21125AF  24016.45436775  .00000189  00000-0  29998-4 0  9993,2 50185  53.2183 165.2393 0001373  84.9724 275.1425 15.08833439117885,6917.9,95.438,540.715,538.816,0.0
50185.0,STARLINK-3279,PAYLOAD,2024-01-16 14:05:03,15.08836598,0.0001237,53.2181,164.6441,89.0352,271.0782,5.2795e-05,5.52e-06,0.0,0 STARLINK-3279,1 50185U 21125AF  24016.58684502  .00000552  00000-0  52795-4 0  9995,2 50185  53.2181 164.6441 0001237  89.0352 271.0782 15.08836598118388,6917.891,95.438,540.612,538.9,0.0
50185.0,STARLINK-3279,PAYLOAD,2024-01-16 18:51:12,15.08842107,0.0001394,53.2179,163.7513,90.1356,269.9796,0.0001006,1.314e-05,0.0,0 STARLINK-3279,1 50185U 21125AF  24016.78556087  .00001314  00000-0  10060-3 0  9998,2 50185  53.2179 163.7513 0001394  90.1356 269.9796 15.08842107117930,6917.874,95.437,540.703,538.775,0.0
50185.0,STARLINK-3279,PAYLOAD,2024-01-17 09:09:41,15.08834713,0.0001527,53.2176,161.0757,68.1305,291.985,2.5995e-05,1.26e-06,0.0,0 STARLINK-3279,1 50185U 21125AF  24017.38173063  .00000126  00000-0  25995-4 0  9998,2 50185  53.2176 161.0757 0001527  68.1305 291.9850 15.08834713118026,6917.897,95.438,540.818,538.705,0.0
50185.0,STARLINK-3279,PAYLOAD,2024-01-17 13:55:50,15.08834209,0.0001238,53.2183,160.1779,112.4087,247.7037,0.00010522,1.387e-05,0.0,0 STARLINK-3279,1 50185U 21125AF  24017.58044676  .00001387  00000-0  10522-3 0  9996,2 50185  53.2183 160.1779 0001238 112.4087 247.7037 15.08834209118539,6917.898,95.438,540.62,538.907,0.0
50185.0,STARLINK-3279,PAYLOAD,2024-01-17 17:06:36,15.0884189,0.0001425,53.2174,159.5887,80.4332,279.6821,7.9557e-05,9.78e-06,0.0,0 STARLINK-3279,1 50185U 21125AF  24017.71292489  .00000978  00000-0  79557-4 0  9997,2 50185  53.2174 159.5887 0001425  80.4332 279.6821 15.08841890118074,6917.875,95.437,540.725,538.754,0.0
50185.0,STARLINK-3279,PAYLOAD,2024-01-18 09:00:28,15.08838668,0.000137,53.217,156.6143,89.5388,270.5761,5.0304e-05,5.13e-06,0.0,0 STARLINK-3279,1 50185U 21125AF  24018.37532879  .00000513  00000-0  50304-4 0  9994,2 50185  53.2170 156.6143 0001370  89.5388 270.5761 15.08838668118176,6917.884,95.438,540.697,538.802,0.0
50185.0,STARLINK-3279,PAYLOAD,2024-01-18 13:46:37,15.08842126,0.0001359,53.2171,155.7228,94.4853,265.6294,7.6621e-05,9.32e-06,0.0,0 STARLINK-3279,1 50185U 21125AF  24018.57404564  .00000932  00000-0  76621-4 0  9990,2 50185  53.2171 155.7228 0001359  94.4853 265.6294 15.08842126118686,6917.874,95.437,540.679,538.799,0.0
50185.0,STARLINK-3279,PAYLOAD,2024-01-18 15:22:00,15.08843941,0.0001383,53.2169,155.4252,89.2352,270.8799,9.4061e-05,1.21e-05,0.0,0 STARLINK-3279,1 50185U 21125AF  24018.64028447  .00001210  00000-0  94061-4 0  9998,2 50185  53.2169 155.4252 0001383  89.2352 270.8799 15.08843941118695,6917.868,95.437,540.69,538.777,0.0
50185.0,STARLINK-3279,PAYLOAD,2024-01-19 13:37:24,15.08845217,0.000154,53.217,151.2644,78.0248,282.0917,9.4987e-05,1.224e-05,0.0,0 STARLINK-3279,1 50185U 21125AF  24019.56764387  .00001224  00000-0  94987-4 0  9992,2 50185  53.2170 151.2644 0001540  78.0248 282.0917 15.08845217118832,6917.864,95.437,540.795,538.664,0.0
50185.0,STARLINK-3279,PAYLOAD,2024-01-19 15:12:47,15.08846543,0.0001571,53.2169,150.9669,76.5901,283.5266,0.00010467,1.378e-05,0.0,0 STARLINK-3279,1 50185U 21125AF  24019.63388271  .00001378  00000-0  10467-3 0  9994,2 50185  53.2169 150.9669 0001571  76.5901 283.5266 15.08846543118843,6917.86,95.437,540.812,538.639,0.0
50185.0,STARLINK-3279,PAYLOAD,2024-01-20 11:52:48,15.08840341,0.0001738,53.2176,147.1,109.3027,250.8153,2.7611e-05,1.51e-06,0.0,0 STARLINK-3279,1 50185U 21125AF  24020.49500694  .00000151  00000-0  27611-4 0  9993,2 50185  53.2176 147.1000 0001738 109.3027 250.8153 15.08840341118490,6917.879,95.438,540.947,538.542,0.0
50185.0,STARLINK-3279,PAYLOAD,2024-01-20 15:03:34,15.08839577,0.0001464,53.218,146.5058,101.8737,258.2419,2.3187e-05,8.1e-07,0.0,0 STARLINK-3279,1 50185U 21125AF  24020.62748797  .00000081  00000-0  23187-4 0  9992,2 50185  53.2180 146.5058 0001464 101.8737 258.2419 15.08839577118993,6917.882,95.438,540.759,538.734,0.0
